{
    "links": {
        "self": "http://www.neowsapp.com/rest/v1/neo/3678631?api_key=iIulBulltgU6a56xZRHN4H3l9WmuAYTsLGpBGhQ2"
    },
    "id": "3678631",
    "neo_reference_id": "3678631",
    "name": "(2014 ON339)",
    "designation": "2014 ON339",
    "nasa_jpl_url": "http://ssd.jpl.nasa.gov/sbdb.cgi?sstr=3678631",
    "absolute_magnitude_h": 22.6,
    "estimated_diameter": {
        "kilometers": {
            "estimated_diameter_min": 0.0802703167,
            "estimated_diameter_max": 0.1794898848
        },
        "meters": {
            "estimated_diameter_min": 80.2703167283,
            "estimated_diameter_max": 179.4898847799
        },
        "miles": {
            "estimated_diameter_min": 0.049877647,
            "estimated_diameter_max": 0.1115298092
        },
        "feet": {
            "estimated_diameter_min": 263.3540659348,
            "estimated_diameter_max": 588.8775935812
        }
    },
    "is_potentially_hazardous_asteroid": false,
    "close_approach_data": [
        {
            "close_approach_date": "2014-08-12",
            "close_approach_date_full": "2014-Aug-12 09:41",
            "epoch_date_close_approach": 1407836460000,
            "relative_velocity": {
                "kilometers_per_second": "5.0842984213",
                "kilometers_per_hour": "18303.4743166325",
                "miles_per_hour": "11373.0671385765"
            },
            "miss_distance": {
                "astronomical": "0.2373469247",
                "lunar": "92.3279537083",
                "kilometers": "35506594.386170389",
                "miles": "22062774.6871098082"
            },
            "orbiting_body": "Earth"
        }
    ],
    "orbital_data": {
        "orbit_id": "6",
        "orbit_determination_date": "2017-04-06 08:39:24",
        "first_observation_date": "2014-07-28",
        "last_observation_date": "2014-08-20",
        "data_arc_in_days": 23,
        "observations_used": 18,
        "orbit_uncertainty": "7",
        "minimum_orbit_intersection": ".239585",
        "jupiter_tisserand_invariant": "3.371",
        "epoch_osculation": "2459000.5",
        "eccentricity": ".4738305624303946",
        "semi_major_axis": "2.375090227699856",
        "inclination": "7.446065155403546",
        "ascending_node_longitude": "127.2278475048481",
        "orbital_period": "1336.960560421192",
        "perihelion_distance": "1.249699889285899",
        "perihelion_argument": "195.7400338772119",
        "aphelion_distance": "3.500480566113812",
        "perihelion_time": "2459557.333024945687",
        "mean_anomaly": "210.0629749935966",
        "mean_motion": ".2692674792789599",
        "equinox": "J2000",
        "orbit_class": {
            "orbit_class_type": "AMO",
            "orbit_class_description": "Near-Earth asteroid orbits similar to that of 1221 Amor",
            "orbit_class_range": "1.017 AU < q (perihelion) < 1.3 AU"
        }
    },
    "is_sentry_object": false
}